ONEWEB-0379             
1 49305U 21090AC  24255.00527544  .00000070  00000+0  15557-3 0  9990
2 49305  87.8941  57.8135 0001597  92.9446 267.1866 13.14499215144234
ONEWEB-0380             
1 49306U 21090AD  24254.74237981  .00000159  00000+0  36425-3 0  9999
2 49306  87.9097  73.1619 0001772  89.7264 270.4072 13.19722926141420
ONEWEB-0381             
1 49307U 21090AE  24254.84682230  .00000120  00000+0  26242-3 0  9996
2 49307  87.9228  42.6013 0001888  91.6387 268.4962 13.20768879144777
ONEWEB-0382             
1 49308U 21090AF  24254.83419775  .00000185  00000+0  42412-3 0  9996
2 49308  87.9227  42.6001 0001457  85.0315 275.0984 13.20768664144763
ONEWEB-0383             
1 49309U 21090AG  24254.84671273  .00000099  00000+0  23340-3 0  9994
2 49309  87.8939  57.8317 0001445  89.4678 270.6617 13.14501892142941
ONEWEB-0384             
1 49310U 21090AH  24254.83103507  .00000164  00000+0  37113-3 0  9991
2 49310  87.9229  42.6135 0001391  79.9658 280.1632 13.20772883144771
ONEWEB-0385             
1 49311U 21090AJ  24254.82628911  .00000164  00000+0  37208-3 0  9997
2 49311  87.9229  42.6157 0001555  82.7542 277.3768 13.20771252144746
ONEWEB-0386             
1 49312U 21090AK  24254.84367282  .00000119  00000+0  26017-3 0  9997
2 49312  87.9220  42.6012 0001574  85.8550 274.2764 13.20770605144767
